LEMUR-2-LIA-MARTIN      
1 63248U 25052AQ  26068.70341042  .00006911  00000+0  60828-3 0  9993
2 63248  97.6996 322.6614 0003817 139.7155 220.4350 14.96805944 53795
STARLINK-36209          
1 67022U 25293V   26068.17770489 -.00008704  00000+0 -72280-3 0  9995
2 67022  70.0010  95.6454 0002638 266.3087  93.7770 14.98321732 14818
